{
  "type": "FeatureCollection",
  "features": [
    {
      "type": "Feature",
      "properties": {
        "shapeName": "Grand Cape Mount",
        "shapeISO": "LR-CM",
        "shapeID": "1627179B74258959251724",
        "shapeGroup": "LBR",
        "shapeType": "ADM1",
        "fgm_prevalence": "71%",
        "spotlight_county": "Yes",
        "lwep_target_communities": 114,
        "women_legislators": "3/4",
        "one_stop_centers": [
          "Robertsport (St. Timothy Hospital)"
        ],
        "safe_homes": [
          "Robertsport Safe Home"
        ]
      },
      "geometry": {
        "type": "Polygon",
        "coordinates": [
          [
            [
              -10.936074409999947,
              6.984721350000029
            ],
            [
              -10.935965259999932,
              6.986713627000029
            ],
            [
              -10.937539197999968,
              6.988446405000047
            ],
            [
              -10.938253553999971,
              6.989154308000025
            ],
            [
              -10.939461661999928,
              6.990351776000068
            ],
            [
              -10.939468687999977,
              6.99205482800005
            ],
            [
              -10.939480318999927,
              6.994873282000071
            ],
            [
              -10.940189414999963,
              6.998001336000073
            ],
            [
              -10.942635208999945,
              7.000077994000037
            ],
            [
              -10.948932379999974,
              7.003855882000039
            ],
            [
              -10.949555596999971,
              7.004260701000021
            ],
            [
              -10.954848136999942,
              7.006810270000074
            ],
            [
              -10.954748643999949,
              7.007635094000022
            ],
            [
              -10.954680033999978,
              7.008202691000065
            ],
            [
              -10.951899811999965,
              7.009431372000051
            ],
            [
              -10.949822552999933,
              7.012222884000039
            ],
            [
              -10.948095536999972,
              7.015534483000067
            ],
            [
              -10.943049581999958,
              7.016076946000055
            ],
            [
              -10.941145910999978,
              7.016285419000042
            ],
            [
              -10.936437449999971,
              7.016800426000032
            ],
            [
              -10.933137965999947,
              7.018726751000031
            ],
            [
              -10.928251074999935,
              7.015616432000058
            ],
            [
              -10.924941262999937,
              7.015108468000051
            ],
            [
              -10.921983401999967,
              7.015468102000057
            ],
            [
              -10.917992618999961,
              7.018615441000065
            ],
            [
              -10.914368102999958,
              7.026282908000042
            ],
            [
              -10.914032089999978,
              7.029240695000055
            ],
            [
              -10.911263247999955,
              7.033252094000034
            ],
            [
              -10.910876464999944,
              7.036038313000063
            ],
            [
              -10.910586648999981,
              7.038125151000031
            ],
            [
              -10.909668520999958,
              7.03995349500002
            ],
            [
              -10.908468186999926,
              7.042344101000026
            ],
            [
              -10.908255581999981,
              7.042567039000062
            ],
            [
              -10.90556586699995,
              7.044928685000059
            ],
            [
              -10.899405649999949,
              7.04982351600006
            ],
            [
              -10.895462527999939,
              7.055616803000021
            ],
            [
              -10.894704580999928,
              7.056379900000024
            ],
            [
              -10.891606688999957,
              7.058551601000033
            ],
            [
              -10.887269027999935,
              7.062221227000066
            ],
            [
              -10.884901236999951,
              7.063051290000033
            ],
            [
              -10.882748919999926,
              7.06380531700006
            ],
            [
              -10.879284729999938,
              7.06592532600007
            ],
            [
              -10.878912606999961,
              7.066152856000031
            ],
            [
              -10.877885953999964,
              7.066781402000061
            ],
            [
              -10.874563328999955,
              7.070003844000041
            ],
            [
              -10.873203444999945,
              7.071322552000026
            ],
            [
              -10.871390449999979,
              7.072146376000035
            ],
            [
              -10.86625208199996,
              7.074480992000076
            ],
            [
              -10.865223509999964,
              7.074782346000063
            ],
            [
              -10.863339247999932,
              7.075334063000071
            ],
            [
              -10.858426295999948,
              7.076773187000072
            ],
            [
              -10.852336646999959,
              7.077841173000024
            ],
            [
              -10.847779336999963,
              7.080327014000034
            ],
            [
              -10.845647739999947,
              7.081641952000041
            ],
            [
              -10.838090937999937,
              7.085724683000024
            ],
            [
              -10.833313830999941,
              7.087676151000039
            ],
            [
              -10.831616370999939,
              7.090652386000045
            ],
            [
              -10.830975773999967,
              7.091666420000024
            ],
            [
              -10.831156884999928,
              7.092047141000023
            ],
            [
              -10.832738408999944,
              7.095370402000071
            ],
            [
              -10.833671447999961,
              7.097709007000049
            ],
            [
              -10.83181035399997,
              7.100009486000033
            ],
            [
              -10.829972884999961,
              7.102280484000062
            ],
            [
              -10.820094232999963,
              7.105798632000074
            ],
            [
              -10.817627505999951,
              7.106677423000065
            ],
            [
              -10.815087338999945,
              7.109890893000056
            ],
            [
              -10.814729818999979,
              7.110182751000025
            ],
            [
              -10.81260188899995,
              7.112784299000054
            ],
            [
              -10.807729682999934,
              7.113673026000072
            ],
            [
              -10.802680092999935,
              7.113692713000034
            ],
            [
              -10.800351387999967,
              7.112994836000041
            ],
            [
              -10.798670633999961,
              7.112491084000055
            ],
            [
              -10.797476690999929,
              7.113006004000056
            ],
            [
              -10.79313746899993,
              7.114877484000033
            ],
            [
              -10.791835354999932,
              7.115439150000043
            ],
            [
              -10.792024187999971,
              7.116063985000039
            ],
            [
              -10.788680843999941,
              7.119385583000053
            ],
            [
              -10.787655871999959,
              7.119934303000036
            ],
            [
              -10.781902228999968,
              7.121600384000033
            ],
            [
              -10.777168858999971,
              7.120918431000064
            ],
            [
              -10.771436162999976,
              7.121872846000031
            ],
            [
              -10.767649067999969,
              7.122835585000075
            ],
            [
              -10.76572194299996,
              7.123156582000036
            ],
            [
              -10.765314596999929,
              7.124115995000068
            ],
            [
              -10.763637747999951,
              7.126714547000063
            ],
            [
              -10.763518393999959,
              7.128347035000047
            ],
            [
              -10.76330682899993,
              7.131238372000041
            ],
            [
              -10.757588073999955,
              7.138565344000028
            ],
            [
              -10.751522239999929,
              7.146241715000031
            ],
            [
              -10.749565989999951,
              7.148679691000041
            ],
            [
              -10.747882552999954,
              7.150778126000034
            ],
            [
              -10.747888068999941,
              7.152228184000023
            ],
            [
              -10.747891815999935,
              7.153213160000064
            ],
            [
              -10.746179834999964,
              7.155845170000021
            ],
            [
              -10.744602273999931,
              7.158269836000045
            ],
            [
              -10.738751836999938,
              7.160715755000069
            ],
            [
              -10.735048975999973,
              7.16491611400005
            ],
            [
              -10.732846035999955,
              7.169493389000024
            ],
            [
              -10.728355888999943,
              7.17366448000007
            ],
            [
              -10.72773744899996,
              7.173365599000022
            ],
            [
              -10.724650641999972,
              7.175704925000048
            ],
            [
              -10.722556624999982,
              7.177312639000036
            ],
            [
              -10.716306977999977,
              7.182728435000058
            ],
            [
              -10.710060062999958,
              7.188839834000021
            ],
            [
              -10.706580004999978,
              7.189722531000029
            ],
            [
              -10.702402725999946,
              7.190433738000024
            ],
            [
              -10.698909211999933,
              7.191588823000075
            ],
            [
              -10.693357065999976,
              7.193424003000075
            ],
            [
              -10.692508429999975,
              7.193922756000063
            ],
            [
              -10.689186138999958,
              7.195874543000059
            ],
            [
              -10.68405652499996,
              7.198155088000021
            ],
            [
              -10.679700323999953,
              7.197648914000069
            ],
            [
              -10.67657696699996,
              7.200791760000072
            ],
            [
              -10.670842578999952,
              7.204465193000033
            ],
            [
              -10.654927072999953,
              7.216033223000068
            ],
            [
              -10.652081044999932,
              7.218101198000056
            ],
            [
              -10.63905151299997,
              7.227541389000066
            ],
            [
              -10.625221769999939,
              7.237463989000048
            ],
            [
              -10.623334290999935,
              7.238464814000054
            ],
            [
              -10.617897844999959,
              7.241852445000063
            ],
            [
              -10.610551792999956,
              7.246429651000028
            ],
            [
              -10.608550932999947,
              7.249871147000022
            ],
            [
              -10.606396476999976,
              7.253576543000065
            ],
            [
              -10.599930348999976,
              7.257481388000031
            ],
            [
              -10.598574081999971,
              7.258300548000022
            ],
            [
              -10.595872570999973,
              7.261384483000029
            ],
            [
              -10.592154378999965,
              7.265629413000056
            ],
            [
              -10.590999367999927,
              7.266072590000022
            ],
            [
              -10.583455971999967,
              7.268964894000021
            ],
            [
              -10.571720567999932,
              7.275789896000049
            ],
            [
              -10.560416375999978,
              7.281395821000046
            ],
            [
              -10.552307765999956,
              7.286073870000052
            ],
            [
              -10.551484216999938,
              7.286484178000023
            ],
            [
              -10.547832968999955,
              7.289068187000055
            ],
            [
              -10.547551494999936,
              7.289267523000035
            ],
            [
              -10.545304501999965,
              7.294493945000056
            ],
            [
              -10.539872809999963,
              7.299175114000036
            ],
            [
              -10.538008697999942,
              7.300781455000049
            ],
            [
              -10.530705269999942,
              7.304807107000045
            ],
            [
              -10.524096437999958,
              7.308308668000052
            ],
            [
              -10.521761281999943,
              7.310419554000021
            ],
            [
              -10.520535851999966,
              7.311526903000072
            ],
            [
              -10.520053211999937,
              7.31208861600004
            ],
            [
              -10.516982650999978,
              7.317030651000039
            ],
            [
              -10.515434063999976,
              7.322776318000024
            ],
            [
              -10.516496937999932,
              7.32799153600007
            ],
            [
              -10.516173239999944,
              7.335298604000059
            ],
            [
              -10.517061521999949,
              7.340340327000035
            ],
            [
              -10.516386620999981,
              7.345732647000034
            ],
            [
              -10.515449916999955,
              7.353218684000069
            ],
            [
              -10.515719880999939,
              7.353198555000063
            ],
            [
              -10.52087295299998,
              7.35281374300007
            ],
            [
              -10.52608995099996,
              7.351593335000075
            ],
            [
              -10.532513127999948,
              7.349508003000039
            ],
            [
              -10.542091351999943,
              7.34808317300002
            ],
            [
              -10.545746495999936,
              7.347888046000037
            ],
            [
              -10.550088364999965,
              7.347303946000068
            ],
            [
              -10.553132834999928,
              7.345361128000036
            ],
            [
              -10.552986429999976,
              7.346155687000021
            ],
            [
              -10.553931907999981,
              7.345781103000036
            ],
            [
              -10.561760226999979,
              7.342274802000077
            ],
            [
              -10.569601493999926,
              7.34242152500002
            ],
            [
              -10.571091283999976,
              7.343030640000052
            ],
            [
              -10.579721703999951,
              7.346560829000055
            ],
            [
              -10.590193857999964,
              7.351568386000054
            ],
            [
              -10.599794724999981,
              7.356578759000058
            ],
            [
              -10.602648950999935,
              7.357371636000039
            ],
            [
              -10.602946160999977,
              7.357454215000075
            ],
            [
              -10.606596825999929,
              7.35846801200006
            ],
            [
              -10.616352161999941,
              7.357910726000057
            ],
            [
              -10.621843843999955,
              7.358094331000075
            ],
            [
              -10.625762177999945,
              7.35822480500002
            ],
            [
              -10.63152097699998,
              7.360639061000029
            ],
            [
              -10.63190575699997,
              7.361447506000047
            ],
            [
              -10.634330281999951,
              7.366543007000075
            ],
            [
              -10.634292777999974,
              7.368170758000076
            ],
            [
              -10.655962905999957,
              7.383262764000051
            ],
            [
              -10.686376979999977,
              7.393256846000043
            ],
            [
              -10.704555409999955,
              7.402874387000054
            ],
            [
              -10.706707034999965,
              7.413816268000062
            ],
            [
              -10.728294866999931,
              7.431842498000037
            ],
            [
              -10.729052659999979,
              7.432456462000061
            ],
            [
              -10.733637053999928,
              7.429818061000049
            ],
            [
              -10.761729516999935,
              7.434191197000075
            ],
            [
              -10.783494911999981,
              7.435151021000024
            ],
            [
              -10.794518208999932,
              7.437985279000031
            ],
            [
              -10.794550127999969,
              7.445836234000069
            ],
            [
              -10.799308996999969,
              7.455499898000028
            ],
            [
              -10.803297615999952,
              7.469092123000053
            ],
            [
              -10.814868917999945,
              7.477419092000048
            ],
            [
              -10.824369102999981,
              7.492034989000047
            ],
            [
              -10.838552525999944,
              7.497733283000059
            ],
            [
              -10.850127374999943,
              7.506582350000031
            ],
            [
              -10.859104839999929,
              7.521463634000042
            ],
            [
              -10.869258778999949,
              7.526157214000023
            ],
            [
              -10.874301249999974,
              7.531811192000021
            ],
            [
              -10.874512623999976,
              7.532048180000061
            ],
            [
              -10.87533917199994,
              7.531288584000038
            ],
            [
              -10.878505176999965,
              7.528378494000037
            ],
            [
              -10.885806133999949,
              7.523998972000072
            ],
            [
              -10.894256961999929,
              7.523615019000033
            ],
            [
              -10.898932910999974,
              7.516811831000041
            ],
            [
              -10.903785381999967,
              7.510529408000025
            ],
            [
              -10.910741041999927,
              7.507020718000035
            ],
            [
              -10.91978362499998,
              7.502633218000028
            ],
            [
              -10.923953205999965,
              7.499658642000043
            ],
            [
              -10.927623322999978,
              7.502077365000048
            ],
            [
              -10.929391282999973,
              7.507808806000071
            ],
            [
              -10.933598203999964,
              7.513355455000067
            ],
            [
              -10.93759567099994,
              7.510903043000042
            ],
            [
              -10.944197533999954,
              7.506352378000031
            ],
            [
              -10.956708038999977,
              7.498122402000035
            ],
            [
              -10.964865495999959,
              7.490781794000043
            ],
            [
              -10.971641084999931,
              7.486229522000031
            ],
            [
              -10.975795685999969,
              7.480123794000065
            ],
            [
              -10.976291112999945,
              7.474034463000066
            ],
            [
              -10.977147498999955,
              7.470726309000042
            ],
            [
              -10.986718273999941,
              7.467901118000043
            ],
            [
              -10.99522307999996,
              7.460558085000059
            ],
            [
              -10.999910185999966,
              7.456711105000068
            ],
            [
              -11.004085503999931,
              7.455300543000021
            ],
            [
              -11.008252863999928,
              7.452151406000041
            ],
            [
              -11.010319868999943,
              7.446924594000052
            ],
            [
              -11.010479951999969,
              7.443793639000035
            ],
            [
              -11.013615425999944,
              7.443605368000021
            ],
            [
              -11.017960129999949,
              7.441150920000041
            ],
            [
              -11.020392896999965,
              7.439748188000067
            ],
            [
              -11.025876278999931,
              7.438680130000023
            ],
            [
              -11.026382269999942,
              7.435025540000026
            ],
            [
              -11.027768691999938,
              7.43345410400002
            ],
            [
              -11.029870040999981,
              7.435705123000048
            ],
            [
              -11.032140389999938,
              7.436912332000077
            ],
            [
              -11.033706215999928,
              7.436383077000073
            ],
            [
              -11.033511863999934,
              7.432036173000029
            ],
            [
              -11.035234118999938,
              7.427681048000068
            ],
            [
              -11.038183864999951,
              7.425058841000066
            ],
            [
              -11.041318338999929,
              7.424696393000033
            ],
            [
              -11.044607572999951,
              7.42015946600003
            ],
            [
              -11.046506955999973,
              7.416499052000063
            ],
            [
              -11.049108980999961,
              7.414051867000069
            ],
            [
              -11.050940861999948,
              7.412206573000049
            ],
            [
              -11.054484859999945,
              7.40863630900003
            ],
            [
              -11.055318049999926,
              7.40796857600003
            ],
            [
              -11.061254079999969,
              7.40321370700002
            ],
            [
              -11.067157744999975,
              7.399012647000063
            ],
            [
              -11.075151724999955,
              7.394801812000026
            ],
            [
              -11.083157752999966,
              7.393199421000077
            ],
            [
              -11.089250870999933,
              7.39230137800007
            ],
            [
              -11.09291146299995,
              7.392805703000022
            ],
            [
              -11.09586468699996,
              7.391052776000038
            ],
            [
              -11.098651239999981,
              7.390865653000048
            ],
            [
              -11.101964283999962,
              7.391546122000022
            ],
            [
              -11.103872401999979,
              7.389798078000069
            ],
            [
              -11.105763752999962,
              7.384572020000064
            ],
            [
              -11.11027134099993,
              7.38002911600006
            ],
            [
              -11.114437391999957,
              7.376879374000055
            ],
            [
              -11.115122501999963,
              7.374441596000054
            ],
            [
              -11.115622023999947,
              7.369569596000076
            ],
            [
              -11.123968143999946,
              7.366400017000046
            ],
            [
              -11.127592265999965,
              7.359252695000066
            ],
            [
              -11.131564327999968,
              7.352104286000042
            ],
            [
              -11.133900984999968,
              7.348962601000039
            ],
            [
              -11.140675687999931,
              7.34510483400004
            ],
            [
              -11.144668276999937,
              7.342303247000075
            ],
            [
              -11.146562675999974,
              7.337772672000028
            ],
            [
              -11.144956054999966,
              7.329607365000072
            ],
            [
              -11.145111754999959,
              7.325781150000068
            ],
            [
              -11.146149818999959,
              7.324472793000041
            ],
            [
              -11.147189283999978,
              7.32316273400005
            ],
            [
              -11.150312759999963,
              7.320713333000072
            ],
            [
              -11.152038618999939,
              7.317400538000072
            ],
            [
              -11.154609832999938,
              7.313346972000033
            ],
            [
              -11.154804290999948,
              7.313040390000026
            ],
            [
              -11.160008389999973,
              7.308668
            ],
            [
              -11.163659116999952,
              7.307258968000042
            ],
            [
              -11.169058009999958,
              7.307233032000056
            ],
            [
              -11.17305960799996,
              7.306344279000029
            ],
            [
              -11.173901002999969,
              7.30025381400003
            ],
            [
              -11.175101578999943,
              7.296422628000073
            ],
            [
              -11.180135205999932,
              7.29292042000003
            ],
            [
              -11.181165801999953,
              7.289958975000047
            ],
            [
              -11.177838485999928,
              7.286149622000039
            ],
            [
              -11.177989099999934,
              7.281280004000052
            ],
            [
              -11.182324390999952,
              7.277433165000048
            ],
            [
              -11.183709935999957,
              7.275861529000053
            ],
            [
              -11.182472459999929,
              7.272041541000021
            ],
            [
              -11.181267655999932,
              7.268156416000068
            ],
            [
              -11.18308927299995,
              7.266468567000061
            ],
            [
              -11.185136356999976,
              7.264725392000059
            ],
            [
              -11.187560951999956,
              7.261931252000068
            ],
            [
              -11.19399982799996,
              7.261030683000058
            ],
            [
              -11.197467470999982,
              7.257884017000038
            ],
            [
              -11.197659089999945,
              7.257759928000041
            ],
            [
              -11.202328091999959,
              7.254730586000051
            ],
            [
              -11.208589417999974,
              7.253135247000046
            ],
            [
              -11.215547954999977,
              7.251709877000053
            ],
            [
              -11.219626482999956,
              7.251215973000058
            ],
            [
              -11.223031438999953,
              7.250803860000076
            ],
            [
              -11.230520848999959,
              7.251115165000044
            ],
            [
              -11.239025793999929,
              7.245508614000073
            ],
            [
              -11.242657577999978,
              7.240448019000041
            ],
            [
              -11.247677910999926,
              7.234511118000057
            ],
            [
              -11.250285486999928,
              7.233628794000026
            ],
            [
              -11.255665158999932,
              7.232734998000069
            ],
            [
              -11.260379285999932,
              7.232535367000025
            ],
            [
              -11.264910794999935,
              7.233382294000023
            ],
            [
              -11.26788733199993,
              7.23667178900007
            ],
            [
              -11.270344230999967,
              7.240484713000058
            ],
            [
              -11.274694599999975,
              7.239941552000062
            ],
            [
              -11.274672814999974,
              7.235594503000073
            ],
            [
              -11.274656267999944,
              7.232290859000045
            ],
            [
              -11.276208579999945,
              7.229326814000046
            ],
            [
              -11.277067856999963,
              7.227062228000023
            ],
            [
              -11.278444171999979,
              7.223751631000027
            ],
            [
              -11.281909079999934,
              7.220256595000023
            ],
            [
              -11.283456958999977,
              7.216423146000068
            ],
            [
              -11.285884842999963,
              7.21449814500005
            ],
            [
              -11.287247253999965,
              7.208405913000036
            ],
            [
              -11.287209749999931,
              7.200928705000024
            ],
            [
              -11.289632318999963,
              7.197960884000054
            ],
            [
              -11.294099590999963,
              7.197276982000062
            ],
            [
              -11.294329638999955,
              7.197241934000033
            ],
            [
              -11.297638548999942,
              7.197399331000042
            ],
            [
              -11.295912361999967,
              7.200363683000035
            ],
            [
              -11.29174424699994,
              7.202471423000077
            ],
            [
              -11.291764344999933,
              7.206470440000032
            ],
            [
              -11.294900119999966,
              7.206802136000022
            ],
            [
              -11.297677952999948,
              7.205223339000042
            ],
            [
              -11.299765443999945,
              7.204865415000029
            ],
            [
              -11.302386718999969,
              7.206764485000065
            ],
            [
              -11.302054227999975,
              7.209896398000069
            ],
            [
              -11.303463864999969,
              7.213192958000036
            ],
            [
              -11.305383454999969,
              7.21405268500007
            ],
            [
              -11.310505545999945,
              7.211244568000041
            ],
            [
              -11.311533414999928,
              7.207935721000069
            ],
            [
              -11.311685453999928,
              7.20358789900007
            ],
            [
              -11.312706264999974,
              7.198888261000036
            ],
            [
              -11.31319955999993,
              7.193147323000062
            ],
            [
              -11.312998059999927,
              7.187758449000057
            ],
            [
              -11.313152918999947,
              7.183932036000044
            ],
            [
              -11.320607157999973,
              7.177635096000074
            ],
            [
              -11.322853685999974,
              7.174319540000056
            ],
            [
              -11.322317244999965,
              7.171540609000033
            ],
            [
              -11.32317536599993,
              7.16910204800007
            ],
            [
              -11.325702083999943,
              7.167760586000043
            ],
            [
              -11.330120307999948,
              7.165415281000037
            ],
            [
              -11.334442447999947,
              7.15948155500007
            ],
            [
              -11.334256010999979,
              7.157048298000063
            ],
            [
              -11.330227414999968,
              7.152199731000053
            ],
            [
              -11.330726654999978,
              7.147676771000022
            ],
            [
              -11.333322004999957,
              7.144533459000058
            ],
            [
              -11.337679325999943,
              7.145554771000036
            ],
            [
              -11.343087172999958,
              7.147788073000072
            ],
            [
              -11.346922217999975,
              7.148811372000068
            ],
            [
              -11.350912648999952,
              7.146182860000067
            ],
            [
              -11.352109947999963,
              7.142003800000055
            ],
            [
              -11.351484710999955,
              7.138877416000071
            ],
            [
              -11.34762759299997,
              7.133506723000039
            ],
            [
              -11.341482840999959,
              7.123279181000044
            ],
            [
              -11.33849635699994,
              7.117904486000043
            ],
            [
              -11.335003512999947,
              7.115661351000028
            ],
            [
              -11.333942427999943,
              7.112363096000024
            ],
            [
              -11.335012277999965,
              7.109591328000022
            ],
            [
              -11.335488863999956,
              7.108356287000049
            ],
            [
              -11.337043189999974,
              7.105914246000054
            ],
            [
              -11.33441113799995,
              7.101754504000041
            ],
            [
              -11.334037495999951,
              7.096713976000046
            ],
            [
              -11.334891151999955,
              7.093405508000046
            ],
            [
              -11.335224462999975,
              7.090448211000023
            ],
            [
              -11.334855238999978,
              7.086277058000064
            ],
            [
              -11.33361064099995,
              7.081066903000021
            ],
            [
              -11.334093971999948,
              7.078080607000061
            ],
            [
              -11.336726071999976,
              7.077573660000041
            ],
            [
              -11.343351483999982,
              7.079800538000029
            ],
            [
              -11.348931749999963,
              7.081859155000075
            ],
            [
              -11.352234419999945,
              7.080973068000048
            ],
            [
              -11.357284531999937,
              7.081468901000051
            ],
            [
              -11.361986587999979,
              7.081967009000039
            ],
            [
              -11.368247157999974,
              7.080891793000035
            ],
            [
              -11.371710295999947,
              7.077396630000067
            ],
            [
              -11.376553378999972,
              7.071460275000049
            ],
            [
              -11.377921801999946,
              7.066758440000058
            ],
            [
              -11.373890427999982,
              7.06121532100002
            ],
            [
              -11.371040135999976,
              7.058396856000059
            ],
            [
              -11.368642540999929,
              7.05602572500004
            ],
            [
              -11.368671676999952,
              7.055695111000034
            ],
            [
              -11.364428504999978,
              7.050992359000077
            ],
            [
              -11.364984840999966,
              7.050644386000045
            ],
            [
              -11.369359107999969,
              7.047906175000037
            ],
            [
              -11.369440506999979,
              7.046983281000053
            ],
            [
              -11.370130632999974,
              7.039163831000053
            ],
            [
              -11.370699671999944,
              7.032716575000052
            ],
            [
              -11.370493041999964,
              7.026283980000073
            ],
            [
              -11.371286707999957,
              7.020808913000053
            ],
            [
              -11.371501956999964,
              7.019323834000033
            ],
            [
              -11.374236750999955,
              7.015150086000062
            ],
            [
              -11.376046832999975,
              7.01313101900007
            ],
            [
              -11.377379996999935,
              7.011643673000037
            ],
            [
              -11.379653550999933,
              7.010936203000028
            ],
            [
              -11.384312153999929,
              7.010771912000052
            ],
            [
              -11.385380557999952,
              7.010733722000055
            ],
            [
              -11.390939511999932,
              7.008792726000024
            ],
            [
              -11.396475310999961,
              7.002331550000065
            ],
            [
              -11.398372620999965,
              6.999018404000026
            ],
            [
              -11.398860992999971,
              6.992408973000067
            ],
            [
              -11.399097048999977,
              6.991830454000024
            ],
            [
              -11.400923374999934,
              6.987356268000042
            ],
            [
              -11.405632349999962,
              6.989418370000067
            ],
            [
              -11.412256372999934,
              6.991645153000036
            ],
            [
              -11.416228219999937,
              6.985712731000035
            ],
            [
              -11.416373637999982,
              6.980148462000045
            ],
            [
              -11.416168439999979,
              6.974064037000062
            ],
            [
              -11.41772204199998,
              6.971622006000075
            ],
            [
              -11.424161827999967,
              6.971936951000032
            ],
            [
              -11.42956131699998,
              6.972951958000067
            ],
            [
              -11.431471750999947,
              6.972246759000029
            ],
            [
              -11.433616291999954,
              6.966324289000056
            ],
            [
              -11.429418876999932,
              6.96217314300003
            ],
            [
              -11.428995694999969,
              6.961670882000021
            ],
            [
              -11.425042065999946,
              6.95697952200004
            ],
            [
              -11.421531784999956,
              6.951086027000031
            ],
            [
              -11.420458465999957,
              6.945354018000046
            ],
            [
              -11.419742898999971,
              6.941532295000059
            ],
            [
              -11.420780756999932,
              6.940310243000056
            ],
            [
              -11.422626049999963,
              6.940950432000022
            ],
            [
              -11.423743930999933,
              6.941338441000028
            ],
            [
              -11.429148260999966,
              6.943396878000044
            ],
            [
              -11.436455027999955,
              6.943185396000047
            ],
            [
              -11.445141924999973,
              6.940706637000062
            ],
            [
              -11.452607214999944,
              6.937538715000073
            ],
            [
              -11.455548743999941,
              6.934394136000037
            ],
            [
              -11.457955743999946,
              6.928817747000039
            ],
            [
              -11.460203031999981,
              6.926024151000036
            ],
            [
              -11.467698680999945,
              6.928767229000073
            ],
            [
              -11.472918030999949,
              6.928740085000072
            ],
            [
              -11.48509570899995,
              6.928502553000044
            ],
            [
              -11.491185028999951,
              6.928470656000059
            ],
            [
              -11.496928108999953,
              6.928788449000024
            ],
            [
              -11.500396555999941,
              6.926683653000055
            ],
            [
              -11.497939924999969,
              6.922698006000076
            ],
            [
              -11.483805141999937,
              6.914600868000036
            ],
            [
              -11.477717008999946,
              6.911986241000022
            ],
            [
              -11.477004768999961,
              6.911680404000037
            ],
            [
              -11.467574076999938,
              6.904774786000075
            ],
            [
              -11.462022339999976,
              6.899283637000053
            ],
            [
              -11.456625462999966,
              6.890226704000042
            ],
            [
              -11.456428250999977,
              6.88570764900004
            ],
            [
              -11.448927128999969,
              6.881746861000067
            ],
            [
              -11.442300388999968,
              6.878651355000045
            ],
            [
              -11.434224730999972,
              6.873741370000062
            ],
            [
              -11.426419930999941,
              6.868995893000033
            ],
            [
              -11.410014685999954,
              6.858646374000045
            ],
            [
              -11.409094584999934,
              6.85781326700004
            ],
            [
              -11.401801039999953,
              6.851211238000076
            ],
            [
              -11.39356324299996,
              6.838907171000074
            ],
            [
              -11.387416944999927,
              6.827288410000051
            ],
            [
              -11.383463165999956,
              6.820874917000026
            ],
            [
              -11.380577604999928,
              6.816194285000051
            ],
            [
              -11.373813847999941,
              6.802665414000046
            ],
            [
              -11.372049606999951,
              6.797631742000021
            ],
            [
              -11.372542516999943,
              6.79171761200007
            ],
            [
              -11.373038704999942,
              6.786498864000066
            ],
            [
              -11.372472700999936,
              6.777459787000055
            ],
            [
              -11.371489435999933,
              6.774695432000044
            ],
            [
              -11.37123803399993,
              6.773988269000029
            ],
            [
              -11.369481662999931,
              6.770519851000074
            ],
            [
              -11.36959315799993,
              6.770179959000075
            ],
            [
              -11.368506765999939,
              6.769518940000069
            ],
            [
              -11.366795331999981,
              6.768292750000057
            ],
            [
              -11.366026826999928,
              6.767473472000063
            ],
            [
              -11.365668829999947,
              6.766417046000072
            ],
            [
              -11.365664821999928,
              6.765594046000047
            ],
            [
              -11.366421012999979,
              6.763885541000036
            ],
            [
              -11.367175195999948,
              6.761765537000031
            ],
            [
              -11.366640213999972,
              6.760592398000028
            ],
            [
              -11.364868871999931,
              6.759131331000049
            ],
            [
              -11.363045872999976,
              6.759140185000035
            ],
            [
              -11.36188287799996,
              6.761850045000074
            ],
            [
              -11.358884581999973,
              6.762040954000042
            ],
            [
              -11.357360730999972,
              6.763106515000061
            ],
            [
              -11.353946494999946,
              6.76241759800007
            ],
            [
              -11.35341580599993,
              6.762126228000056
            ],
            [
              -11.350994190999927,
              6.759962790000031
            ],
            [
              -11.349462365999955,
              6.759382310000035
            ],
            [
              -11.347807538999973,
              6.757685448000075
            ],
            [
              -11.344897135999929,
              6.755853659000024
            ],
            [
              -11.343550096999934,
              6.757019289000027
            ],
            [
              -11.339528249999944,
              6.758029497000052
            ],
            [
              -11.337559706999969,
              6.760887270000069
            ],
            [
              -11.336204549999934,
              6.762503796000033
            ],
            [
              -11.335457283999972,
              6.761702375000027
            ],
            [
              -11.334276599999953,
              6.760965172000056
            ],
            [
              -11.332043279999937,
              6.760294587000033
            ],
            [
              -11.329620484999964,
              6.758882026000038
            ],
            [
              -11.327509450999969,
              6.757901252000067
            ],
            [
              -11.325898757999937,
              6.757908951000047
            ],
            [
              -11.324106130999951,
              6.758722528000021
            ],
            [
              -11.322472327999947,
              6.760371430000021
            ],
            [
              -11.320564353999941,
              6.762981445000037
            ],
            [
              -11.318217019999963,
              6.764416815000061
            ],
            [
              -11.315805430999944,
              6.765357608000045
            ],
            [
              -11.313338292999958,
              6.767660696000064
            ],
            [
              -11.313098833999959,
              6.767871989000071
            ],
            [
              -11.312351192999927,
              6.768531992000021
            ],
            [
              -11.309382066999945,
              6.769475416000034
            ],
            [
              -11.304740140999968,
              6.770426198000052
            ],
            [
              -11.302761483999973,
              6.771240606000049
            ],
            [
              -11.299542147999944,
              6.77168972100003
            ],
            [
              -11.297066088999941,
              6.772134739000023
            ],
            [
              -11.294760223999958,
              6.772450136000032
            ],
            [
              -11.293784701999925,
              6.772583548000057
            ],
            [
              -11.290935445999935,
              6.772721280000042
            ],
            [
              -11.290165301999934,
              6.773622595000063
            ],
            [
              -11.288811381999949,
              6.775548632000039
            ],
            [
              -11.288012480999953,
              6.776915025000051
            ],
            [
              -11.287020635999966,
              6.776795977000063
            ],
            [
              -11.285840079999957,
              6.776058079000052
            ],
            [
              -11.285524406999969,
              6.774821221000025
            ],
            [
              -11.285332781999955,
              6.773583214000041
            ],
            [
              -11.28464830799993,
              6.772967262000066
            ],
            [
              -11.284092253999972,
              6.773279463000051
            ],
            [
              -11.283051934999946,
              6.776009619000035
            ],
            [
              -11.282210926999937,
              6.778010068000071
            ],
            [
              -11.280400069999928,
              6.778623065000033
            ],
            [
              -11.277743953999959,
              6.780307762000064
            ],
            [
              -11.276192537999975,
              6.77975744500003
            ],
            [
              -11.274640254999952,
              6.779021825000029
            ],
            [
              -11.27383012699994,
              6.778034712000021
            ],
            [
              -11.272841315999926,
              6.778534798000067
            ],
            [
              -11.271728451999934,
              6.779035463000071
            ],
            [
              -11.26992907999994,
              6.778486283000063
            ],
            [
              -11.268688384999962,
              6.778120350000052
            ],
            [
              -11.267205521999927,
              6.778994469000054
            ],
            [
              -11.26603640899998,
              6.780733747000056
            ],
            [
              -11.265550750999978,
              6.782842131000052
            ],
            [
              -11.264314240999965,
              6.783404942000061
            ],
            [
              -11.26369757599997,
              6.784027001000027
            ],
            [
              -11.261287439999933,
              6.785339318000069
            ],
            [
              -11.259800492999943,
              6.785346250000032
            ],
            [
              -11.257626613999946,
              6.784179589000075
            ],
            [
              -11.255455483999981,
              6.783632086000068
            ],
            [
              -11.253474180999945,
              6.783889309000074
            ],
            [
              -11.251676800999974,
              6.783773368000027
            ],
            [
              -11.25111610099998,
              6.783094640000058
            ],
            [
              -11.251543107999964,
              6.781668418000038
            ],
            [
              -11.251598230999946,
              6.780181776000063
            ],
            [
              -11.250789712999961,
              6.779504196000062
            ],
            [
              -11.249546576999933,
              6.778643325000075
            ],
            [
              -11.248057053999958,
              6.778092618000073
            ],
            [
              -11.246514542999932,
              6.779462426000066
            ],
            [
              -11.24516183399993,
              6.781697991000044
            ],
            [
              -11.243491376999941,
              6.782201183000041
            ],
            [
              -11.240948799999956,
              6.781717470000046
            ],
            [
              -11.237164088999975,
              6.780558134000046
            ],
            [
              -11.234749567999927,
              6.780941002000077
            ],
            [
              -11.233021768999947,
              6.782435361000068
            ],
            [
              -11.231719462999934,
              6.782193902000074
            ],
            [
              -11.229804142999967,
              6.782336040000075
            ],
            [
              -11.229325093999933,
              6.780572745000029
            ],
            [
              -11.226521013999957,
              6.776064808000058
            ],
            [
              -11.227549568999962,
              6.772756204000075
            ],
            [
              -11.229092059999971,
              6.767706300000043
            ],
            [
              -11.224203089999946,
              6.763728767000032
            ],
            [
              -11.222127191999959,
              6.763162558000033
            ],
            [
              -11.217932822999956,
              6.762018440000077
            ],
            [
              -11.213400536999927,
              6.759952662000046
            ],
            [
              -11.210794128999964,
              6.757370748000028
            ],
            [
              -11.209556221999947,
              6.756144174000042
            ],
            [
              -11.207621472999961,
              6.751458067000044
            ],
            [
              -11.208391723999966,
              6.748672111000076
            ],
            [
              -11.205590438999934,
              6.744685380000021
            ],
            [
              -11.207129111999961,
              6.738766028000043
            ],
            [
              -11.214592955999933,
              6.735254298000029
            ],
            [
              -11.212670127999957,
              6.73317602700007
            ],
            [
              -11.20744956599998,
              6.732678176000036
            ],
            [
              -11.203271713999982,
              6.732001555000068
            ],
            [
              -11.200828755999964,
              6.730273583000042
            ],
            [
              -11.196460041999956,
              6.725636167000062
            ],
            [
              -11.195934931999943,
              6.725078636000035
            ],
            [
              -11.198355957999979,
              6.721937818000072
            ],
            [
              -11.193646308999973,
              6.719002444000068
            ],
            [
              -11.190159049999977,
              6.717105051000033
            ],
            [
              -11.187024158999975,
              6.716249563000076
            ],
            [
              -11.182486197999935,
              6.712791801000037
            ],
            [
              -11.182686064999928,
              6.711196543000028
            ],
            [
              -11.181931063999969,
              6.707991394000032
            ],
            [
              -11.182004638999956,
              6.70601646700004
            ],
            [
              -11.182562312999949,
              6.70190038100003
            ],
            [
              -11.183867271999929,
              6.699261781000075
            ],
            [
              -11.185502851999956,
              6.696951092000063
            ],
            [
              -11.188946840999961,
              6.694221046000052
            ],
            [
              -11.191321086999949,
              6.691495194000026
            ],
            [
              -11.194515858999978,
              6.68827245500006
            ],
            [
              -11.196071934999964,
              6.686619741000072
            ],
            [
              -11.194826656999965,
              6.684157493000043
            ],
            [
              -11.194987563999973,
              6.683334173000048
            ],
            [
              -11.196699389999935,
              6.679706187000022
            ],
            [
              -11.197011718999931,
              6.67922739100004
            ],
            [
              -11.198742553999978,
              6.676571075000027
            ],
            [
              -11.198981404999927,
              6.674759837000067
            ],
            [
              -11.200209022999957,
              6.673273565000045
            ],
            [
              -11.200708990999942,
              6.674670204000051
            ],
            [
              -11.203189962999943,
              6.677456289000077
            ],
            [
              -11.206817452999928,
              6.679002757000035
            ],
            [
              -11.209698537999941,
              6.679236729000024
            ],
            [
              -11.211760077999941,
              6.680215038000028
            ],
            [
              -11.213578902999927,
              6.68209893900007
            ],
            [
              -11.214979937999942,
              6.682586417000039
            ],
            [
              -11.219095637999942,
              6.682896688000028
            ],
            [
              -11.223617119999972,
              6.681971211000075
            ],
            [
              -11.228388482999947,
              6.681703311000035
            ],
            [
              -11.233329621999928,
              6.682585419000077
            ],
            [
              -11.235014772999932,
              6.682207722000044
            ],
            [
              -11.237074469999982,
              6.682774058000064
            ],
            [
              -11.240453604999971,
              6.683993118000046
            ],
            [
              -11.244659503999969,
              6.686030388000063
            ],
            [
              -11.247870470999942,
              6.68642701400006
            ],
            [
              -11.251991786999952,
              6.687971387000061
            ],
            [
              -11.254870831999938,
              6.687793795000061
            ],
            [
              -11.258579290999933,
              6.689010629000052
            ],
            [
              -11.260641663999934,
              6.690153083000041
            ],
            [
              -11.263201169999945,
              6.692033319000075
            ],
            [
              -11.26633890599993,
              6.694404632000044
            ],
            [
              -11.268567404999942,
              6.695875071000046
            ],
            [
              -11.271704042999943,
              6.697999456000048
            ],
            [
              -11.275213963999931,
              6.700739566000038
            ],
            [
              -11.278025709999952,
              6.703770434000035
            ],
            [
              -11.281411658999957,
              6.706386762000022
            ],
            [
              -11.286272924999935,
              6.707762915000046
            ],
            [
              -11.288243211999941,
              6.706766213000037
            ],
            [
              -11.290955015999941,
              6.706013486000074
            ],
            [
              -11.293428622999954,
              6.707071350000035
            ],
            [
              -11.294973089999928,
              6.708696789000044
            ],
            [
              -11.296074763999968,
              6.709855962000063
            ],
            [
              -11.298220404999938,
              6.711162205000051
            ],
            [
              -11.30002865299997,
              6.710742451000044
            ],
            [
              -11.302085371999965,
              6.710650316000056
            ],
            [
              -11.30670453099998,
              6.713014303000023
            ],
            [
              -11.308935520999967,
              6.714978226000028
            ],
            [
              -11.312571564999928,
              6.718251783000028
            ],
            [
              -11.317691957999955,
              6.722176408000053
            ],
            [
              -11.320421833999944,
              6.725207288000036
            ],
            [
              -11.324136328999941,
              6.727657239000052
            ],
            [
              -11.328016359999936,
              6.730271319000053
            ],
            [
              -11.331626319999941,
              6.728032842000061
            ],
            [
              -11.333764241999972,
              6.727693858000066
            ],
            [
              -11.335741371999973,
              6.72817815600007
            ],
            [
              -11.337147670999968,
              6.729734001000054
            ],
            [
              -11.336992935999945,
              6.731791610000073
            ],
            [
              -11.336674410999933,
              6.734014394000042
            ],
            [
              -11.337503994999963,
              6.735408598000049
            ],
            [
              -11.337758419999943,
              6.736970509000059
            ],
            [
              -11.337524881999968,
              6.739768538000021
            ],
            [
              -11.337041786999976,
              6.741992111000059
            ],
            [
              -11.336721297999929,
              6.743803080000021
            ],
            [
              -11.338294613999949,
              6.745852407000029
            ],
            [
              -11.340528642999971,
              6.748391725000033
            ],
            [
              -11.341479662999973,
              6.748675830000025
            ],
            [
              -11.341762195999934,
              6.748760340000047
            ],
            [
              -11.344491538999932,
              6.751087665000057
            ],
            [
              -11.345647578999944,
              6.751904617000037
            ],
            [
              -11.346319955999945,
              6.753232883000067
            ],
            [
              -11.347147065999934,
              6.754866806000052
            ],
            [
              -11.347745154999927,
              6.755204652000032
            ],
            [
              -11.34812653399996,
              6.755386669000075
            ],
            [
              -11.350422144999982,
              6.756119019000039
            ],
            [
              -11.350473816999965,
              6.756172151000044
            ],
            [
              -11.350564360999954,
              6.756202450000046
            ],
            [
              -11.351299077999954,
              6.757020727000054
            ],
            [
              -11.352040745999943,
              6.757783344000075
            ],
            [
              -11.353659197999946,
              6.759385519000034
            ],
            [
              -11.355459679999967,
              6.760181807000038
            ],
            [
              -11.357223440999974,
              6.760230331000059
            ],
            [
              -11.357346763999942,
              6.76022599700002
            ],
            [
              -11.358313850999934,
              6.759809070000074
            ],
            [
              -11.359852711999963,
              6.75910753200003
            ],
            [
              -11.36408849999998,
              6.756023237000022
            ],
            [
              -11.364673448999952,
              6.756062386000053
            ],
            [
              -11.364854011999967,
              6.756074470000044
            ],
            [
              -11.367025542999954,
              6.755182113000046
            ],
            [
              -11.367463461999932,
              6.755367213000056
            ],
            [
              -11.367733372999965,
              6.755446516000063
            ],
            [
              -11.36776453899995,
              6.755494473000056
            ],
            [
              -11.367850539999949,
              6.755530824000061
            ],
            [
              -11.36897615099997,
              6.75723017200005
            ],
            [
              -11.369289412999933,
              6.757829728000047
            ],
            [
              -11.36931212099995,
              6.757800797000073
            ],
            [
              -11.36990115499998,
              6.758944338000049
            ],
            [
              -11.370160464999969,
              6.760535692000076
            ],
            [
              -11.369292298999937,
              6.763054579000027
            ],
            [
              -11.36890279499994,
              6.764858649000075
            ],
            [
              -11.36911977699998,
              6.766366388000051
            ],
            [
              -11.370528978999971,
              6.767323471000054
            ],
            [
              -11.37121072399998,
              6.76526651100005
            ],
            [
              -11.37407639099996,
              6.760671495000054
            ],
            [
              -11.376202375999981,
              6.757620247000034
            ],
            [
              -11.376645576999977,
              6.757306822000032
            ],
            [
              -11.381402351999952,
              6.753943320000076
            ],
            [
              -11.383992587999956,
              6.750105148000046
            ],
            [
              -11.38605158699994,
              6.744357394000076
            ],
            [
              -11.385677417999943,
              6.738968957000054
            ],
            [
              -11.385052168999948,
              6.738103197000044
            ],
            [
              -11.381299584999965,
              6.732905220000021
            ],
            [
              -11.37770798899993,
              6.727532413000063
            ],
            [
              -11.376581899999962,
              6.726852095000027
            ],
            [
              -11.374568174999979,
              6.725634907000028
            ],
            [
              -11.371419809999963,
              6.721999200000027
            ],
            [
              -11.36913702499993,
              6.717489314000034
            ],
            [
              -11.368946304999952,
              6.71401267300007
            ],
            [
              -11.364395907999949,
              6.708122891000073
            ],
            [
              -11.35758982599998,
              6.703287259000035
            ],
            [
              -11.34347861699996,
              6.698311845000035
            ],
            [
              -11.333197799999937,
              6.694187732000046
            ],
            [
              -11.319431526999949,
              6.688514953000038
            ],
            [
              -11.307206743999927,
              6.683292614000038
            ],
            [
              -11.296079793999979,
              6.678539310000076
            ],
            [
              -11.28265864499997,
              6.67216815300003
            ],
            [
              -11.26679652699994,
              6.664416267000036
            ],
            [
              -11.25059334599996,
              6.658056170000066
            ],
            [
              -11.247897995999949,
              6.657187114000067
            ],
            [
              -11.24049157099995,
              6.654798220000032
            ],
            [
              -11.213048074999961,
              6.643271104000064
            ],
            [
              -11.198932813999932,
              6.636899521000032
            ],
            [
              -11.189714151999965,
              6.63352844800005
            ],
            [
              -11.183429384999954,
              6.63122958200006
            ],
            [
              -11.171570821999978,
              6.623804089000032
            ],
            [
              -11.159726776999946,
              6.619682183000066
            ],
            [
              -11.159357313999976,
              6.619534068000064
            ],
            [
              -11.143002183999954,
              6.612972416000048
            ],
            [
              -11.122618535999948,
              6.604538480000031
            ],
            [
              -11.117042964999939,
              6.60222310100005
            ],
            [
              -11.110597466999934,
              6.599546334000024
            ],
            [
              -11.091950735999944,
              6.590407909000021
            ],
            [
              -11.080621578999967,
              6.584368348000055
            ],
            [
              -11.074514591999957,
              6.579523850000044
            ],
            [
              -11.072855326999957,
              6.577791603000037
            ],
            [
              -11.067879037999944,
              6.572942854000075
            ],
            [
              -11.065467184999932,
              6.578518289000044
            ],
            [
              -11.065310224999962,
              6.579092436000053
            ],
            [
              -11.064610580999954,
              6.581652054000074
            ],
            [
              -11.067581355999948,
              6.585118043000023
            ],
            [
              -11.070203688999982,
              6.588411420000057
            ],
            [
              -11.070459239999934,
              6.591378413000029
            ],
            [
              -11.070780108999941,
              6.59510565000005
            ],
            [
              -11.071471568999925,
              6.600580082000022
            ],
            [
              -11.077258670999981,
              6.612033760000031
            ],
            [
              -11.082046287999958,
              6.621208247000027
            ],
            [
              -11.082815165999932,
              6.622989343000029
            ],
            [
              -11.082912379999982,
              6.623197426000047
            ],
            [
              -11.085009485999933,
              6.627681622000068
            ],
            [
              -11.087896932999968,
              6.63385581600005
            ],
            [
              -11.088486522999972,
              6.635116702000062
            ],
            [
              -11.087947074999931,
              6.636167640000053
            ],
            [
              -11.08607118499998,
              6.639822705000029
            ],
            [
              -11.083061333999979,
              6.641302150000058
            ],
            [
              -11.080950215999962,
              6.642243867000047
            ],
            [
              -11.079581337999969,
              6.642854185000033
            ],
            [
              -11.073244570999975,
              6.648862045000044
            ],
            [
              -11.071705867999981,
              6.650892389000035
            ],
            [
              -11.068716099999961,
              6.654837443000076
            ],
            [
              -11.068531829999927,
              6.655095863000042
            ],
            [
              -11.066253300999961,
              6.656297023000036
            ],
            [
              -11.063014069999952,
              6.657832161000044
            ],
            [
              -11.057622685999945,
              6.658028107000064
            ],
            [
              -11.053620601999967,
              6.658158895000042
            ],
            [
              -11.053289778999954,
              6.658169875000056
            ],
            [
              -11.051535932999968,
              6.658227449000037
            ],
            [
              -11.046839699999964,
              6.658246929000029
            ],
            [
              -11.04302105599993,
              6.660175923000054
            ],
            [
              -11.041102323999951,
              6.66061045400005
            ],
            [
              -11.039892986999973,
              6.660884405000047
            ],
            [
              -11.036934648999932,
              6.660548558000073
            ],
            [
              -11.033628489999955,
              6.660214689000043
            ],
            [
              -11.032268933999944,
              6.660721469000066
            ],
            [
              -11.030328763999933,
              6.66144534600005
            ],
            [
              -11.027435235999974,
              6.662926889000062
            ],
            [
              -11.026791964999973,
              6.663712102000034
            ],
            [
              -11.027386743999955,
              6.667078957000058
            ],
            [
              -11.026920719999964,
              6.669946725000045
            ],
            [
              -11.025418701999968,
              6.670931535000022
            ],
            [
              -11.024112848999948,
              6.672621832000061
            ],
            [
              -11.02392987199994,
              6.672858767000037
            ],
            [
              -11.023051037999949,
              6.67463489000005
            ],
            [
              -11.021694499999967,
              6.676785333000055
            ],
            [
              -11.02136023199995,
              6.680091598000047
            ],
            [
              -11.025705844999948,
              6.694008611000072
            ],
            [
              -11.026761255999929,
              6.698112618000039
            ],
            [
              -11.026831327999957,
              6.698384675000057
            ],
            [
              -11.023778695999965,
              6.702515800000072
            ],
            [
              -11.019337704999941,
              6.705968379000069
            ],
            [
              -11.017817941999965,
              6.707062893000057
            ],
            [
              -11.013952676999963,
              6.711934712000073
            ],
            [
              -11.013575112999945,
              6.712410330000068
            ],
            [
              -11.012972361999971,
              6.713169957000048
            ],
            [
              -11.01054774399995,
              6.715788694000025
            ],
            [
              -11.007416382999963,
              6.715801536000072
            ],
            [
              -11.003587145999973,
              6.71529511500006
            ],
            [
              -11.001148238999974,
              6.714435484000035
            ],
            [
              -10.991336984999975,
              6.719610588000023
            ],
            [
              -10.989517560999957,
              6.720570087000056
            ],
            [
              -10.988872873999981,
              6.720411668000054
            ],
            [
              -10.988367930999971,
              6.720287714000051
            ],
            [
              -10.987427916999934,
              6.720057037000061
            ],
            [
              -10.989322276999928,
              6.715353248000042
            ],
            [
              -10.988972021999928,
              6.713862949000031
            ],
            [
              -10.988712981999981,
              6.713122095000074
            ],
            [
              -10.985662161999926,
              6.713628882000023
            ],
            [
              -10.982192049999981,
              6.715904254000066
            ],
            [
              -10.979073994999965,
              6.719221269000059
            ],
            [
              -10.979569169999934,
              6.722588654000049
            ],
            [
              -10.979968462999977,
              6.725304923000067
            ],
            [
              -10.979975140999954,
              6.726953708000053
            ],
            [
              -10.979979732999936,
              6.72808717700002
            ],
            [
              -10.978005698999937,
              6.73024235400004
            ],
            [
              -10.973744420999935,
              6.734895254000037
            ],
            [
              -10.972185812999953,
              6.736640776000058
            ],
            [
              -10.971824287999937,
              6.739911622000022
            ],
            [
              -10.971262644999968,
              6.744993136000062
            ],
            [
              -10.971278120999955,
              6.748819035000054
            ],
            [
              -10.971751323999968,
              6.750449554000056
            ],
            [
              -10.971983772999977,
              6.751250986000059
            ],
            [
              -10.972512807999976,
              6.752988071000061
            ],
            [
              -10.97147967199993,
              6.755601093000053
            ],
            [
              -10.971713573999978,
              6.756201925000028
            ],
            [
              -10.972358731999975,
              6.757858301000056
            ],
            [
              -10.973973656999931,
              6.759742414000073
            ],
            [
              -10.975330461999931,
              6.761324699000056
            ],
            [
              -10.97569391899998,
              6.765149737000058
            ],
            [
              -10.975793843999952,
              6.767551921000063
            ],
            [
              -10.975777591999929,
              6.767794958000025
            ],
            [
              -10.975794569999948,
              6.768077979000054
            ],
            [
              -10.975891073999946,
              6.770888142000047
            ],
            [
              -10.976606534999974,
              6.780354885000065
            ],
            [
              -10.97662685499995,
              6.780624896000063
            ],
            [
              -10.976114758999927,
              6.783061777000057
            ],
            [
              -10.977530360999936,
              6.788777688000039
            ],
            [
              -10.977706811999951,
              6.789490058000069
            ],
            [
              -10.97580301499994,
              6.791932619000022
            ],
            [
              -10.972922266999944,
              6.792821881000066
            ],
            [
              -10.972395232999929,
              6.792984501000035
            ],
            [
              -10.967809431999967,
              6.794400524000025
            ],
            [
              -10.966394408999975,
              6.795419409000033
            ],
            [
              -10.965380412999934,
              6.796149618000072
            ],
            [
              -10.966792937999969,
              6.801187533000075
            ],
            [
              -10.968022184999938,
              6.803964846000042
            ],
            [
              -10.968554153999946,
              6.806397485000048
            ],
            [
              -10.969381066999972,
              6.807544561000043
            ],
            [
              -10.971179030999963,
              6.810039273000029
            ],
            [
              -10.973797548999926,
              6.812115876000064
            ],
            [
              -10.975192877999973,
              6.81297978200007
            ],
            [
              -10.979826873999968,
              6.818525957000077
            ],
            [
              -10.983840838999981,
              6.821466358000066
            ],
            [
              -10.986288500999933,
              6.824238566000076
            ],
            [
              -10.986474876999978,
              6.82488025400005
            ],
            [
              -10.98770039599998,
              6.82910286300006
            ],
            [
              -10.987965814999939,
              6.831771601000071
            ],
            [
              -10.988387845999966,
              6.836015032000034
            ],
            [
              -10.988789832999942,
              6.840055128000074
            ],
            [
              -10.988560445999951,
              6.84411873800002
            ],
            [
              -10.988630113999932,
              6.845788719000041
            ],
            [
              -10.984134776999952,
              6.850509596000052
            ],
            [
              -10.979965046999951,
              6.852091977000043
            ],
            [
              -10.978065845999936,
              6.855751699000052
            ],
            [
              -10.975829404999956,
              6.862022199000023
            ],
            [
              -10.973241480999945,
              6.866082553000069
            ],
            [
              -10.973085877999949,
              6.866326730000026
            ],
            [
              -10.972717373999956,
              6.86690459600004
            ],
            [
              -10.972211743999935,
              6.87090721900006
            ],
            [
              -10.969784153999967,
              6.873003934000053
            ],
            [
              -10.96561702799994,
              6.875282389000063
            ],
            [
              -10.965650537999977,
              6.875525788000061
            ],
            [
              -10.966024120999975,
              6.878241580000065
            ],
            [
              -10.966334469999936,
              6.880496550000032
            ],
            [
              -10.965445467999928,
              6.882989250000037
            ],
            [
              -10.964560648999964,
              6.885469503000024
            ],
            [
              -10.964275244999953,
              6.886804761000064
            ],
            [
              -10.962461078999979,
              6.890773787000057
            ],
            [
              -10.961432809999963,
              6.894604539000056
            ],
            [
              -10.962143136999941,
              6.898080075000053
            ],
            [
              -10.962501172999964,
              6.900513407000062
            ],
            [
              -10.959548391999931,
              6.90191670400003
            ],
            [
              -10.957253856999955,
              6.902797437000061
            ],
            [
              -10.956746626999973,
              6.90264865000006
            ],
            [
              -10.956447838999964,
              6.902726723000058
            ],
            [
              -10.957477919999974,
              6.906273286000044
            ],
            [
              -10.959649571999933,
              6.911179181000023
            ],
            [
              -10.959937226999955,
              6.911828937000053
            ],
            [
              -10.957527314999936,
              6.918273664000026
            ],
            [
              -10.953882657999941,
              6.920723460000033
            ],
            [
              -10.95111861099997,
              6.925778480000076
            ],
            [
              -10.950664204999953,
              6.926450500000044
            ],
            [
              -10.950021793999952,
              6.92740016700003
            ],
            [
              -10.948523673999944,
              6.929615677000072
            ],
            [
              -10.944532271999947,
              6.932414934000064
            ],
            [
              -10.944283509999934,
              6.933114362000026
            ],
            [
              -10.942983506999951,
              6.936769385000048
            ],
            [
              -10.94164412799995,
              6.949644602000035
            ],
            [
              -10.94374771899993,
              6.953288498000063
            ],
            [
              -10.946890492999955,
              6.955710406000037
            ],
            [
              -10.947264433999976,
              6.956502205000049
            ],
            [
              -10.947796112999981,
              6.957628431000046
            ],
            [
              -10.948119574999964,
              6.958314206000068
            ],
            [
              -10.947609109999973,
              6.961099201000025
            ],
            [
              -10.944834836999974,
              6.963719479000076
            ],
            [
              -10.944266169999935,
              6.96521582500003
            ],
            [
              -10.943973858999982,
              6.965983807000043
            ],
            [
              -10.943768561999946,
              6.966116310000075
            ],
            [
              -10.939633825999977,
              6.968784545000062
            ],
            [
              -10.936540727999954,
              6.970561910000072
            ],
            [
              -10.936080095999955,
              6.972277620000057
            ],
            [
              -10.93713215899993,
              6.974186591000034
            ],
            [
              -10.93801463099993,
              6.977139349000026
            ],
            [
              -10.938029861999951,
              6.98015386700007
            ],
            [
              -10.936491859999933,
              6.984949613000026
            ],
            [
              -10.936074409999947,
              6.984721350000029
            ]
          ]
        ]
      }
    }
  ]
}
