{"type": "FeatureCollection", "features": [{"type": "Feature", "geometry": {"type": "Point", "coordinates": [-10.3271, 6.61336]}, "properties": {"ID": "1089", "GlideNumber": "0", "Country": "Liberia", "OtherCountry": "0", "long": "-10.3271", "lat": "6.61336", "Area": "18255.11", "Began": "7/15/96", "Ended": "7/18/96", "Validation": "News", "Dead": "0", "Displaced": "0", "MainCause": "Brief torrential rain", "Severity": "1", "category": ""}}, {"type": "Feature", "geometry": {"type": "Point", "coordinates": [-10.9621, 7.05753]}, "properties": {"ID": "1449", "GlideNumber": "0", "Country": "Liberia", "OtherCountry": "0", "long": "-10.9621", "lat": "7.05753", "Area": "5936.01", "Began": "9/17/98", "Ended": "10/2/98", "Validation": "News", "Dead": "8", "Displaced": "5000", "MainCause": "Heavy rain", "Severity": "1", "category": ""}}, {"type": "Feature", "geometry": {"type": "Point", "coordinates": [-10.5823, 6.50598]}, "properties": {"ID": "3177", "GlideNumber": "FL-2007-000144-LBR", "Country": "Liberia", "OtherCountry": "0", "long": "-10.5823", "lat": "6.50598", "Area": "2336.59", "Began": "8/26/07", "Ended": "8/30/07", "Validation": "News", "Dead": "0", "Displaced": "17000", "MainCause": "Heavy rain", "Severity": "1.5", "category": ""}}, {"type": "Feature", "geometry": {"type": "Point", "coordinates": [-10.2126, 6.2298]}, "properties": {"ID": "3334", "GlideNumber": "", "Country": "Liberia", "OtherCountry": "0", "long": "-10.2126", "lat": "6.2298", "Area": "33620.26", "Began": "7/11/08", "Ended": "7/20/08", "Validation": "News", "Dead": "0", "Displaced": "0", "MainCause": "Heavy Rain", "Severity": "1.5", "category": ""}}, {"type": "Feature", "geometry": {"type": "Point", "coordinates": [-7.15018, 6.01301]}, "properties": {"ID": "3669", "GlideNumber": "FL-2010-000118-CIV,", "Country": "Liberia", "OtherCountry": "", "long": "-7.15018", "lat": "6.01301", "Area": "183842.33", "Began": "6/25/10", "Ended": "6/27/10", "Validation": "0", "Dead": "12", "Displaced": "0", "MainCause": "Torrential Rain", "Severity": "1", "category": ""}}, {"type": "Feature", "geometry": {"type": "Point", "coordinates": [-10.0479, 6.24439]}, "properties": {"ID": "4648", "GlideNumber": "", "Country": "Liberia", "OtherCountry": "", "long": "-10.0479", "lat": "6.24439", "Area": "16572.31", "Began": "7/18/18", "Ended": "7/23/18", "Validation": "FloodList", "Dead": "0", "Displaced": "0", "MainCause": "Monsoonal Rain", "Severity": "1", "category": ""}}]}